[{"OBJECT_NAME":"TEVEL2-2","OBJECT_ID":"2025-052K","EPOCH":"2026-03-09T15:33:48.895776","MEAN_MOTION":15.30343745,"ECCENTRICITY":0.0004693,"INCLINATION":97.3987,"RA_OF_ASC_NODE":324.77,"ARG_OF_PERICENTER":105.793,"MEAN_ANOMALY":254.3828,"EPHEMERIS_TYPE":0,"CLASSIFICATION_TYPE":"U","NORAD_CAT_ID":63219,"ELEMENT_SET_NO":999,"REV_AT_EPOCH":5485,"BSTAR":0.00069428,"MEAN_MOTION_DOT":0.00020339,"MEAN_MOTION_DDOT":0},{"OBJECT_NAME":"STARLINK-33804","OBJECT_ID":"2025-071U","EPOCH":"2026-03-09T11:23:12.766848","MEAN_MOTION":15.30183426,"ECCENTRICITY":0.00012634,"INCLINATION":53.1582,"RA_OF_ASC_NODE":141.1182,"ARG_OF_PERICENTER":58.6313,"MEAN_ANOMALY":301.4811,"EPHEMERIS_TYPE":0,"CLASSIFICATION_TYPE":"U","NORAD_CAT_ID":63511,"ELEMENT_SET_NO":999,"REV_AT_EPOCH":5236,"BSTAR":0.00084097169,"MEAN_MOTION_DOT":0.00024618,"MEAN_MOTION_DDOT":0}]
