TEVEL2-2                
1 63219U 25052K   26068.64848259  .00020339  00000+0  69428-3 0  9991
2 63219  97.3987 324.7700 0004693 105.7930 254.3828 15.30343745 54855
STARLINK-33804          
1 63511U 25071U   26068.47445332  .00024618  00000+0  84097-3 0  9996
2 63511  53.1582 141.1182 0001263  58.6313 301.4811 15.30183426 52365
